NORAD_CAT_ID,OBJECT_NAME,OBJECT_TYPE,EPOCH,MEAN_MOTION,ECCENTRICITY,INCLINATION,RA_OF_ASC_NODE,ARG_OF_PERICENTER,MEAN_ANOMALY,BSTAR,MEAN_MOTION_DOT,MEAN_MOTION_DDOT,TLE_LINE0,TLE_LINE1,TLE_LINE2,SEMIMAJOR_AXIS,PERIOD,APOGEE,PERIGEE,DECAYED
55774.0,STARLINK-5812,PAYLOAD,2023-11-04 11:44:45,14.9832252,0.0002211,70.0023,223.1957,271.6706,88.42,2.6927e-05,2.28e-06,0.0,0 STARLINK-5812,1 55774U 23028AK  23308.48941308  .00000228  00000-0  26927-4 0  9998,2 55774  70.0023 223.1957 0002211 271.6706  88.4200 14.98322520 38285,6950.216,96.107,573.618,570.544,0.0
55774.0,STARLINK-5812,PAYLOAD,2023-11-04 21:21:33,14.98321291,0.0002832,70.0016,222.1861,272.1562,87.9272,-1.0368e-05,-2.17e-06,0.0,0 STARLINK-5812,1 55774U 23028AK  23308.88997346 -.00000217  00000-0 -10368-4 0  9997,2 55774  70.0016 222.1861 0002832 272.1562  87.9272 14.98321291 38349,6950.22,96.108,574.053,570.117,0.0
55774.0,STARLINK-5812,PAYLOAD,2023-11-05 03:46:05,14.98335691,0.0002728,70.0007,221.5122,268.589,91.4956,2.4544e-05,2e-06,0.0,0 STARLINK-5812,1 55774U 23028AK  23309.15700346  .00000200  00000-0  24544-4 0  9991,2 55774  70.0007 221.5122 0002728 268.5890  91.4956 14.98335691 38381,6950.175,96.107,573.936,570.144,0.0
55774.0,STARLINK-5812,PAYLOAD,2023-11-05 11:46:45,14.98340645,0.0002894,70.0007,220.6704,271.8578,88.225,-7.1344e-06,-1.78e-06,0.0,0 STARLINK-5812,1 55774U 23028AK  23309.49079932 -.00000178  00000-0 -71344-5 0  9995,2 55774  70.0007 220.6704 0002894 271.8578  88.2250 14.98340645 38433,6950.16,96.106,574.036,570.014,0.0
55774.0,STARLINK-5812,PAYLOAD,2023-11-05 19:47:24,14.98339897,0.0002842,70.0011,219.8295,271.5282,88.5552,0.00021355,2.457e-05,0.0,0 STARLINK-5812,1 55774U 23028AK  23309.82459199  .00002457  00000-0  21355-3 0  9994,2 55774  70.0011 219.8295 0002842 271.5282  88.5552 14.98339897 38485,6950.162,96.106,574.003,570.052,0.0
55774.0,STARLINK-5812,PAYLOAD,2023-11-05 21:23:32,14.98343158,0.0002692,70.0007,219.6617,272.7711,87.314,0.0001615,1.835e-05,0.0,0 STARLINK-5812,1 55774U 23028AK  23309.89135136  .00001835  00000-0  16150-3 0  9999,2 55774  70.0007 219.6617 0002692 272.7711  87.3140 14.98343158 38495,6950.152,96.106,573.888,570.146,0.0
55774.0,STARLINK-5812,PAYLOAD,2023-11-06 03:48:02,14.98369854,0.0002687,70.0007,218.9879,266.9009,93.1843,0.00041012,4.809e-05,0.0,0 STARLINK-5812,1 55774U 23028AK  23310.15836317  .00004809  00000-0  41012-3 0  9998,2 55774  70.0007 218.9879 0002687 266.9009  93.1843 14.98369854 38537,6950.07,96.104,573.802,570.067,0.0
55774.0,STARLINK-5812,PAYLOAD,2023-11-06 11:48:45,14.98322283,0.0002348,70.0019,218.1465,290.1948,69.8958,0.0002824,3.277e-05,0.0,0 STARLINK-5812,1 55774U 23028AK  23310.49219551  .00003277  00000-0  28240-3 0  9996,2 55774  70.0019 218.1465 0002348 290.1948  69.8958 14.98322283 38585,6950.217,96.107,573.714,570.45,0.0
55774.0,STARLINK-5812,PAYLOAD,2023-11-06 19:49:28,14.9829441,0.0003208,70.0015,217.305,275.0118,85.0675,-0.0003095,-3.781e-05,0.0,0 STARLINK-5812,1 55774U 23028AK  23310.82602576 -.00003781  00000-0 -30950-3 0  9999,2 55774  70.0015 217.3050 0003208 275.0118  85.0675 14.98294410 38631,6950.303,96.109,574.398,569.938,0.0
55774.0,STARLINK-5812,PAYLOAD,2023-11-06 21:25:36,14.9829712,0.0003015,70.0014,217.1375,277.324,82.7576,-0.00030271,-3.7e-05,0.0,0 STARLINK-5812,1 55774U 23028AK  23310.89278543 -.00003700  00000-0 -30271-3 0  9996,2 55774  70.0014 217.1375 0003015 277.3240  82.7576 14.98297120 38641,6950.295,96.109,574.255,570.064,0.0
55774.0,STARLINK-5812,PAYLOAD,2023-11-07 03:50:08,14.98312514,0.0003097,70.0008,216.4638,280.3574,79.7236,-0.00016017,-2.003e-05,0.0,0 STARLINK-5812,1 55774U 23028AK  23311.15981557 -.00002003  00000-0 -16017-3 0  9999,2 55774  70.0008 216.4638 0003097 280.3574  79.7236 14.98312514 38680,6950.247,96.108,574.264,569.959,0.0
55774.0,STARLINK-5812,PAYLOAD,2023-11-07 19:51:28,14.98325104,0.0002986,70.0006,214.7801,279.2309,80.8512,-0.00024205,-2.979e-05,0.0,0 STARLINK-5812,1 55774U 23028AK  23311.82741273 -.00002979  00000-0 -24205-3 0  9992,2 55774  70.0006 214.7801 0002986 279.2309  80.8512 14.98325104 38780,6950.208,96.107,574.148,569.998,0.0
55774.0,STARLINK-5812,PAYLOAD,2023-11-08 03:52:08,14.98323449,0.0002643,70.0012,213.9397,276.2214,83.8644,7.6865e-05,8.24e-06,0.0,0 STARLINK-5812,1 55774U 23028AK  23312.16120579  .00000824  00000-0  76865-4 0  9995,2 55774  70.0012 213.9397 0002643 276.2214  83.8644 14.98323449 38835,6950.213,96.107,573.915,570.241,0.0
55774.0,STARLINK-5812,PAYLOAD,2023-11-08 21:29:36,14.98312581,0.0003049,70.0009,212.0878,282.7027,77.3791,0.00034425,4.015e-05,0.0,0 STARLINK-5812,1 55774U 23028AK  23312.89556450  .00004015  00000-0  34425-3 0  9997,2 55774  70.0009 212.0878 0003049 282.7027  77.3791 14.98312581 38948,6950.247,96.108,574.231,569.993,0.0
55774.0,STARLINK-5812,PAYLOAD,2023-11-09 03:54:05,14.98362015,0.000307,70.0005,211.4149,289.73,70.3528,0.00081299,9.629e-05,0.0,0 STARLINK-5812,1 55774U 23028AK  23313.16256172  .00009629  00000-0  81299-3 0  9993,2 55774  70.0005 211.4149 0003070 289.7300  70.3528 14.98362015 38985,6950.094,96.105,574.093,569.825,0.0
55774.0,STARLINK-5812,PAYLOAD,2023-11-09 19:55:30,14.9832289,0.0003133,70.0015,209.7383,274.3567,85.7234,-6.8863e-05,-9.14e-06,0.0,0 STARLINK-5812,1 55774U 23028AK  23313.83021083 -.00000914  00000-0 -68863-4 0  9991,2 55774  70.0015 209.7383 0003133 274.3567  85.7234 14.98322890 39084,6950.215,96.107,574.257,569.902,0.0
55774.0,STARLINK-5812,PAYLOAD,2023-11-09 23:07:34,14.98479276,0.0003365,70.0008,209.3956,268.015,92.0623,0.0017366,0.0002077,0.0,0 STARLINK-5812,1 55774U 23028AK  23313.96359084  .00020770  00000-0  17366-2 0  9990,2 55774  70.0008 209.3956 0003365 268.0150  92.0623 14.98479276 39100,6949.731,96.097,573.935,569.258,0.0
55774.0,STARLINK-5812,PAYLOAD,2023-11-10 10:20:42,14.98325367,0.0002774,70.0001,208.2169,276.1935,83.8908,-0.000208,-2.574e-05,0.0,0 STARLINK-5812,1 55774U 23028AK  23314.43105276 -.00002574  00000-0 -20800-3 0  9997,2 55774  70.0001 208.2169 0002774 276.1935  83.8908 14.98325367 39173,6950.207,96.107,574.0,570.144,0.0
55774.0,STARLINK-5812,PAYLOAD,2023-11-10 19:57:31,14.98326549,0.0002884,70.0,207.2064,274.9497,85.1333,-0.00015716,-1.967e-05,0.0,0 STARLINK-5812,1 55774U 23028AK  23314.83161242 -.00001967  00000-0 -15716-3 0  9991,2 55774  70.0000 207.2064 0002884 274.9497  85.1333 14.98326549 39233,6950.204,96.107,574.073,570.064,0.0
55774.0,STARLINK-5812,PAYLOAD,2023-11-10 21:33:39,14.983271,0.000283,69.9998,207.0379,273.4148,86.6688,-0.00015393,-1.929e-05,0.0,0 STARLINK-5812,1 55774U 23028AK  23314.89837203 -.00001929  00000-0 -15393-3 0  9993,2 55774  69.9998 207.0379 0002830 273.4148  86.6688 14.98327100 39245,6950.202,96.107,574.034,570.1,0.0
55774.0,STARLINK-5812,PAYLOAD,2023-11-11 02:22:03,14.98331981,0.0002684,70.0001,206.5337,271.263,88.8221,-0.00011265,-1.437e-05,0.0,0 STARLINK-5812,1 55774U 23028AK  23315.09864774 -.00001437  00000-0 -11265-3 0  9997,2 55774  70.0001 206.5337 0002684 271.2630  88.8221 14.98331981 39272,6950.187,96.107,573.917,570.186,0.0
55774.0,STARLINK-5812,PAYLOAD,2023-11-11 21:35:39,14.98320285,0.0002587,69.9999,204.5138,268.1088,91.9774,0.00013556,1.524e-05,0.0,0 STARLINK-5812,1 55774U 23028AK  23315.89976788  .00001524  00000-0  13556-3 0  9994,2 55774  69.9999 204.5138 0002587 268.1088  91.9774 14.98320285 39392,6950.223,96.108,573.886,570.29,0.0
55774.0,STARLINK-5812,PAYLOAD,2023-11-12 02:24:03,14.98324034,0.0002556,69.9999,204.0091,268.4874,91.5992,0.00016734,1.904e-05,0.0,0 STARLINK-5812,1 55774U 23028AK  23316.10004572  .00001904  00000-0  16734-3 0  9995,2 55774  69.9999 204.0091 0002556 268.4874  91.5992 14.98324034 39425,6950.211,96.107,573.853,570.3,0.0
55774.0,STARLINK-5812,PAYLOAD,2023-11-12 10:24:44,14.98325127,0.0002576,69.9998,203.167,268.7524,91.334,0.00012059,1.346e-05,0.0,0 STARLINK-5812,1 55774U 23028AK  23316.43384728  .00001346  00000-0  12059-3 0  9991,2 55774  69.9998 203.1670 0002576 268.7524  91.3340 14.98325127 39478,6950.208,96.107,573.863,570.283,0.0
55774.0,STARLINK-5812,PAYLOAD,2023-11-12 21:37:40,14.98328423,0.0002552,69.9999,201.9889,268.9576,91.1291,8.5443e-05,9.27e-06,0.0,0 STARLINK-5812,1 55774U 23028AK  23316.90116717  .00000927  00000-0  85443-4 0  9996,2 55774  69.9999 201.9889 0002552 268.9576  91.1291 14.98328423 39543,6950.198,96.107,573.836,570.289,0.0
55774.0,STARLINK-5812,PAYLOAD,2023-11-13 02:26:04,14.98335306,0.0002552,69.9999,201.4843,269.6078,90.4788,9.9702e-05,1.097e-05,0.0,0 STARLINK-5812,1 55774U 23028AK  23317.10144208  .00001097  00000-0  99702-4 0  9997,2 55774  69.9999 201.4843 0002552 269.6078  90.4788 14.98335306 39577,6950.176,96.107,573.815,570.268,0.0
55774.0,STARLINK-5812,PAYLOAD,2023-11-13 23:15:49,14.98333145,0.000247,70.0001,199.2961,270.1708,89.9168,1.8891e-07,-9.1e-07,0.0,0 STARLINK-5812,1 55774U 23028AK  23317.96932404 -.00000091  00000-0  18891-6 0  9990,2 55774  70.0001 199.2961 0002470 270.1708  89.9168 14.98333145 39704,6950.183,96.107,573.765,570.331,0.0
55774.0,STARLINK-5812,PAYLOAD,2023-11-14 02:28:05,14.98334661,0.0002463,70.0002,198.9595,270.35,89.7377,1.6341e-05,1.02e-06,0.0,0 STARLINK-5812,1 55774U 23028AK  23318.10284237  .00000102  00000-0  16341-4 0  9999,2 55774  70.0002 198.9595 0002463 270.3500  89.7377 14.98334661 39724,6950.178,96.107,573.755,570.332,0.0
55774.0,STARLINK-5812,PAYLOAD,2023-11-14 15:17:11,14.98286556,0.0002367,70.0009,197.6136,266.6859,93.4029,0.0005636,6.63e-05,0.0,0 STARLINK-5812,1 55774U 23028AK  23318.63693673  .00006630  00000-0  56360-3 0  9991,2 55774  70.0009 197.6136 0002367 266.6859  93.4029 14.98286556 39800,6950.327,96.11,573.837,570.547,0.0
55774.0,STARLINK-5812,PAYLOAD,2023-11-15 02:30:07,14.98322505,0.0002305,70.0008,196.4353,271.3398,88.7497,-0.00013046,-1.649e-05,0.0,0 STARLINK-5812,1 55774U 23028AK  23319.10425607 -.00001649  00000-0 -13046-3 0  9995,2 55774  70.0008 196.4353 0002305 271.3398  88.7497 14.98322505 39878,6950.216,96.107,573.683,570.479,0.0
